BEIJING 1               
1 28890U 05043A   23291.49510088  .00000847  00000+0  17817-3 0  9996
2 28890  98.1743  51.6200 0016307  86.5526 273.7540 14.61966587958434
HJ-1A                   
1 33320U 08041A   23291.47045414  .00002011  00000+0  27921-3 0  9997
2 33320  97.6407 305.6299 0022254  83.8135 276.5611 14.78768765814485
HJ-1B                   
1 33321U 08041B   23291.48337924  .00001718  00000+0  23418-3 0  9999
2 33321  97.6407 310.0839 0040166 127.4064 233.0816 14.79362809814489
YAOGAN 4                
1 33446U 08061A   23291.52268784  .00002686  00000+0  37176-3 0  9992
2 33446  97.8579 223.4919 0015668 359.2109   0.9075 14.78777654801682
DEIMOS-1                
1 35681U 09041A   23291.48597048  .00001113  00000+0  18152-3 0  9994
2 35681  97.6798 121.5471 0002889  88.8995 271.2545 14.72749407763586
UK-DMC 2                
1 35683U 09041C   23291.47041217  .00001908  00000+0  30806-3 0  9999
2 35683  97.7499  84.7771 0001527  97.6046 262.5336 14.72480852763287
RISAT 1                 
1 38248U 12017A   23291.51879918  .00010472  00000+0  51317-3 0  9994
2 38248  97.5395 303.9769 0004328  39.5371 320.6177 15.18324485632713
DMC3-FM1                
1 40715U 15032A   23291.52273956  .00001483  00000+0  18876-3 0  9992
2 40715  97.7794 172.1513 0006340  20.4254 339.7213 14.83010552445608
DMC3-FM2                
1 40716U 15032B   23291.47756052  .00001470  00000+0  18734-3 0  9999
2 40716  97.7843 173.0231 0008263  20.7053 339.4494 14.82976049445594
DMC3-FM3                
1 40717U 15032C   23291.50062845  .00001477  00000+0  18792-3 0  9995
2 40717  97.7886 174.1851 0009706  17.0390 343.1148 14.83027411445609
